{
  "type": "FeatureCollection",
  "features": [
    {
      "type": "Feature",
      "properties": {
        "norad_id": 34366,
        "name": "IRIDIUM 33 DEB",
        "group": "iridium-33-debris",
        "lat": -13.338417034090993,
        "lon": -135.76541229596904,
        "alt_km": 718.38220389042,
        "timestamp": "2025-12-26T09:30:54.024288+00:00",
        "meta_object_name": "IRIDIUM 33 DEB",
        "meta_object_id": "1997-051FJ",
        "meta_epoch": "2025-12-26T03:56:31.226784",
        "meta_mean_motion": 14.54157583,
        "meta_eccentricity": 0.0023051,
        "meta_inclination": 86.3679,
        "meta_ra_of_asc_node": 43.4727,
        "meta_arg_of_pericenter": 98.1181,
        "meta_mean_anomaly": 320.0434,
        "meta_ephemeris_type": 0,
        "meta_classification_type": "U",
        "meta_norad_cat_id": 34366,
        "meta_element_set_no": 999,
        "meta_rev_at_epoch": 88377,
        "meta_bstar": 0.00085397,
        "meta_mean_motion_dot": 3.644e-05,
        "meta_mean_motion_ddot": 0,
        "tle_line1": "1 34366U 97051FJ  25360.16425031  .00003644  00000+0  85397-3 0  9993",
        "tle_line2": "2 34366  86.3679  43.4727 0023051  98.1181 320.0434 14.54157583883771"
      },
      "geometry": {
        "type": "Point",
        "coordinates": [
          -135.76541229596904,
          -13.338417034090993
        ]
      }
    },
    {
      "type": "Feature",
      "properties": {
        "norad_id": 34375,
        "name": "IRIDIUM 33 DEB",
        "group": "iridium-33-debris",
        "lat": 43.266145997620335,
        "lon": -6.16992595716499,
        "alt_km": 782.601610526398,
        "timestamp": "2025-12-26T09:30:54.024298+00:00",
        "meta_object_name": "IRIDIUM 33 DEB",
        "meta_object_id": "1997-051FT",
        "meta_epoch": "2025-12-25T12:52:34.268736",
        "meta_mean_motion": 14.18014941,
        "meta_eccentricity": 0.0103685,
        "meta_inclination": 86.4324,
        "meta_ra_of_asc_node": 177.5431,
        "meta_arg_of_pericenter": 86.7144,
        "meta_mean_anomaly": 341.7037,
        "meta_ephemeris_type": 0,
        "meta_classification_type": "U",
        "meta_norad_cat_id": 34375,
        "meta_element_set_no": 999,
        "meta_rev_at_epoch": 86893,
        "meta_bstar": 0.00040149,
        "meta_mean_motion_dot": 8.86e-06,
        "meta_mean_motion_ddot": 0,
        "tle_line1": "1 34375U 97051FT  25359.53650774  .00000886  00000+0  40149-3 0  9997",
        "tle_line2": "2 34375  86.4324 177.5431 0103685  86.7144 341.7037 14.18014941868934"
      },
      "geometry": {
        "type": "Point",
        "coordinates": [
          -6.16992595716499,
          43.266145997620335
        ]
      }
    },
    {
      "type": "Feature",
      "properties": {
        "norad_id": 34376,
        "name": "IRIDIUM 33 DEB",
        "group": "iridium-33-debris",
        "lat": -0.583876640408027,
        "lon": -179.5632154266257,
        "alt_km": 676.8413391707027,
        "timestamp": "2025-12-26T09:30:54.024309+00:00",
        "meta_object_name": "IRIDIUM 33 DEB",
        "meta_object_id": "1997-051FU",
        "meta_epoch": "2025-12-26T00:29:09.701088",
        "meta_mean_motion": 14.62749123,
        "meta_eccentricity": 0.0028587,
        "meta_inclination": 86.2985,
        "meta_ra_of_asc_node": 0.5681,
        "meta_arg_of_pericenter": 123.3286,
        "meta_mean_anomaly": 237.0669,
        "meta_ephemeris_type": 0,
        "meta_classification_type": "U",
        "meta_norad_cat_id": 34376,
        "meta_element_set_no": 999,
        "meta_rev_at_epoch": 88201,
        "meta_bstar": 0.0014873,
        "meta_mean_motion_dot": 7.648e-05,
        "meta_mean_motion_ddot": 0,
        "tle_line1": "1 34376U 97051FU  25360.02025117  .00007648  00000+0  14873-2 0  9998",
        "tle_line2": "2 34376  86.2985   0.5681 0028587 123.3286 237.0669 14.62749123882019"
      },
      "geometry": {
        "type": "Point",
        "coordinates": [
          -179.5632154266257,
          -0.583876640408027
        ]
      }
    },
    {
      "type": "Feature",
      "properties": {
        "norad_id": 34486,
        "name": "IRIDIUM 33 DEB",
        "group": "iridium-33-debris",
        "lat": -58.21111041405329,
        "lon": -168.4415954897762,
        "alt_km": 594.5514672292957,
        "timestamp": "2025-12-26T09:30:54.024319+00:00",
        "meta_object_name": "IRIDIUM 33 DEB",
        "meta_object_id": "1997-051GB",
        "meta_epoch": "2025-12-26T00:39:56.499264",
        "meta_mean_motion": 14.96400313,
        "meta_eccentricity": 0.0013918,
        "meta_inclination": 86.3935,
        "meta_ra_of_asc_node": 5.8877,
        "meta_arg_of_pericenter": 74.4824,
        "meta_mean_anomaly": 338.8012,
        "meta_ephemeris_type": 0,
        "meta_classification_type": "U",
        "meta_norad_cat_id": 34486,
        "meta_element_set_no": 999,
        "meta_rev_at_epoch": 89185,
        "meta_bstar": 0.0021413,
        "meta_mean_motion_dot": 0.00024383,
        "meta_mean_motion_ddot": 0,
        "tle_line1": "1 34486U 97051GB  25360.02773726  .00024383  00000+0  21413-2 0  9999",
        "tle_line2": "2 34486  86.3935   5.8877 0013918  74.4824 338.8012 14.96400313891854"
      },
      "geometry": {
        "type": "Point",
        "coordinates": [
          -168.4415954897762,
          -58.21111041405329
        ]
      }
    },
    {
      "type": "Feature",
      "properties": {
        "norad_id": 34487,
        "name": "IRIDIUM 33 DEB",
        "group": "iridium-33-debris",
        "lat": 1.4358655497512478,
        "lon": -173.59504253833447,
        "alt_km": 751.6876425676155,
        "timestamp": "2025-12-26T09:30:54.024330+00:00",
        "meta_object_name": "IRIDIUM 33 DEB",
        "meta_object_id": "1997-051GC",
        "meta_epoch": "2025-12-26T00:37:21.163296",
        "meta_mean_motion": 14.43232747,
        "meta_eccentricity": 0.0033262,
        "meta_inclination": 86.3429,
        "meta_ra_of_asc_node": 6.6563,
        "meta_arg_of_pericenter": 87.1121,
        "meta_mean_anomaly": 327.0907,
        "meta_ephemeris_type": 0,
        "meta_classification_type": "U",
        "meta_norad_cat_id": 34487,
        "meta_element_set_no": 999,
        "meta_rev_at_epoch": 88440,
        "meta_bstar": 0.0001856,
        "meta_mean_motion_dot": 6.49e-06,
        "meta_mean_motion_ddot": 0,
        "tle_line1": "1 34487U 97051GC  25360.02593939  .00000649  00000+0  18560-3 0  9995",
        "tle_line2": "2 34487  86.3429   6.6563 0033262  87.1121 327.0907 14.43232747884401"
      },
      "geometry": {
        "type": "Point",
        "coordinates": [
          -173.59504253833447,
          1.4358655497512478
        ]
      }
    },
    {
      "type": "Feature",
      "properties": {
        "norad_id": 34488,
        "name": "IRIDIUM 33 DEB",
        "group": "iridium-33-debris",
        "lat": 39.44605735954783,
        "lon": 116.00134663087879,
        "alt_km": 466.2797126961086,
        "timestamp": "2025-12-26T09:30:54.024340+00:00",
        "meta_object_name": "IRIDIUM 33 DEB",
        "meta_object_id": "1997-051GD",
        "meta_epoch": "2025-12-25T20:22:16.973184",
        "meta_mean_motion": 15.32823177,
        "meta_eccentricity": 0.00085439,
        "meta_inclination": 86.325,
        "meta_ra_of_asc_node": 299.3053,
        "meta_arg_of_pericenter": 30.257,
        "meta_mean_anomaly": 329.9171,
        "meta_ephemeris_type": 0,
        "meta_classification_type": "U",
        "meta_norad_cat_id": 34488,
        "meta_element_set_no": 999,
        "meta_rev_at_epoch": 89440,
        "meta_bstar": 0.0046585997,
        "meta_mean_motion_dot": 0.00150449,
        "meta_mean_motion_ddot": 0,
        "tle_line1": "1 34488U 97051GD  25359.84880756  .00150449  00000+0  46586-2 0  9992",
        "tle_line2": "2 34488  86.3250 299.3053 0008543  30.2570 329.9171 15.32823177894407"
      },
      "geometry": {
        "type": "Point",
        "coordinates": [
          116.00134663087879,
          39.44605735954783
        ]
      }
    },
    {
      "type": "Feature",
      "properties": {
        "norad_id": 34492,
        "name": "IRIDIUM 33 DEB",
        "group": "iridium-33-debris",
        "lat": 46.94601915466583,
        "lon": 145.3228137744599,
        "alt_km": 733.4598940482228,
        "timestamp": "2025-12-26T09:30:54.024351+00:00",
        "meta_object_name": "IRIDIUM 33 DEB",
        "meta_object_id": "1997-051GH",
        "meta_epoch": "2025-12-24T21:39:21.521088",
        "meta_mean_motion": 14.25932668,
        "meta_eccentricity": 0.0188786,
        "meta_inclination": 86.473,
        "meta_ra_of_asc_node": 329.7114,
        "meta_arg_of_pericenter": 198.6425,
        "meta_mean_anomaly": 190.963,
        "meta_ephemeris_type": 0,
        "meta_classification_type": "U",
        "meta_norad_cat_id": 34492,
        "meta_element_set_no": 999,
        "meta_rev_at_epoch": 85232,
        "meta_bstar": 0.0029502,
        "meta_mean_motion_dot": 8.501e-05,
        "meta_mean_motion_ddot": 0,
        "tle_line1": "1 34492U 97051GH  25358.90233242  .00008501  00000+0  29502-2 0  9995",
        "tle_line2": "2 34492  86.4730 329.7114 0188786 198.6425 190.9630 14.25932668852326"
      },
      "geometry": {
        "type": "Point",
        "coordinates": [
          145.3228137744599,
          46.94601915466583
        ]
      }
    }
  ]
}